COMMENT,ORIGINATOR,NORAD_CAT_ID,OBJECT_NAME,OBJECT_TYPE,CLASSIFICATION_TYPE,INTLDES,EPOCH,EPOCH_MICROSECONDS,MEAN_MOTION,ECCENTRICITY,INCLINATION,RA_OF_ASC_NODE,ARG_OF_PERICENTER,MEAN_ANOMALY,EPHEMERIS_TYPE,ELEMENT_SET_NO,REV_AT_EPOCH,BSTAR,MEAN_MOTION_DOT,MEAN_MOTION_DDOT,FILE,TLE_LINE0,TLE_LINE1,TLE_LINE2,OBJECT_ID,OBJECT_NUMBER,SEMIMAJOR_AXIS,PERIOD,APOGEE,PERIGEE,DECAYED,date
GENERATED VIA SPACETRACK.ORG API,18 SPCS,48904,SPACEBEE-111,PAYLOAD,U,21059AB,2023/1/1 2:26,862432,15.21723205,0.0009924,97.5781,136.4232,130.3824,229.8279,0,999,8395,0.00087409,0.00019787,0,3728281,0 SPACEBEE-111,1 48904U 21059AB  23001.10159563  .00019787  00000-0  87409-3 0  9991,2 48904  97.5781 136.4232 0009924 130.3824 229.8279 15.21723205 83952,2021-059AB,48904,6878.78,94.63,507.471,493.818,0,2023/1/1
GENERATED VIA SPACETRACK.ORG API,18 SPCS,48904,SPACEBEE-111,PAYLOAD,U,21059AB,2023/1/1 8:45,357216,15.21734956,0.0009948,97.5781,136.6884,129.2735,230.9384,0,999,8399,0.000894,0.00020248,0,3728759,0 SPACEBEE-111,1 48904U 21059AB  23001.36462219  .00020248  00000-0  89400-3 0  9991,2 48904  97.5781 136.6884 0009948 129.2735 230.9384 15.21734956 83990,2021-059AB,48904,6878.744,94.629,507.452,493.766,0,2023/1/2
GENERATED VIA SPACETRACK.ORG API,18 SPCS,48904,SPACEBEE-111,PAYLOAD,U,21059AB,2023/1/2 8:25,668384,15.21772701,0.0009955,97.5781,137.682,126.1536,234.0622,0,999,8414,0.00089557,0.00020306,0,3729448,0 SPACEBEE-111,1 48904U 21059AB  23002.35095681  .00020306  00000-0  89557-3 0  9994,2 48904  97.5781 137.6820 0009955 126.1536 234.0622 15.21772701 84142,2021-059AB,48904,6878.631,94.626,507.343,493.648,0,2023/1/3
GENERATED VIA SPACETRACK.ORG API,18 SPCS,48904,SPACEBEE-111,PAYLOAD,U,21059AB,2023/1/2 14:44,473696,15.21778511,0.0009962,97.5781,137.9467,125.6777,234.5388,0,999,8418,0.00069397,0.00015712,0,3729583,0 SPACEBEE-111,1 48904U 21059AB  23002.61397539  .00015712  00000-0  69397-3 0  9995,2 48904  97.5781 137.9467 0009962 125.6777 234.5388 15.21778511 84184,2021-059AB,48904,6878.613,94.626,507.33,493.626,0,2023/1/4
GENERATED VIA SPACETRACK.ORG API,18 SPCS,48904,SPACEBEE-111,PAYLOAD,U,21059AB,2023/1/2 22:37,333024,15.21789168,0.0009945,97.5781,138.278,124.4274,235.7903,0,999,8423,0.00070277,0.00015917,0,3730475,0 SPACEBEE-111,1 48904U 21059AB  23002.94274691  .00015917  00000-0  70277-3 0  9990,2 48904  97.5781 138.2780 0009945 124.4274 235.7903 15.21789168 84238,2021-059AB,48904,6878.581,94.625,507.287,493.605,0,2023/1/5
GENERATED VIA SPACETRACK.ORG API,18 SPCS,48904,SPACEBEE-111,PAYLOAD,U,21059AB,2023/1/2 22:37,333024,15.21789168,0.0009945,97.5781,138.278,124.4274,235.7903,0,999,8423,0.00070277,0.00015917,0,3730926,0 SPACEBEE-111,1 48904U 21059AB  23002.94274691  .00015917  00000-0  70277-3 0  9990,2 48904  97.5781 138.2780 0009945 124.4274 235.7903 15.21789168 84238,2021-059AB,48904,6878.581,94.625,507.287,493.605,0,2023/1/6
GENERATED VIA SPACETRACK.ORG API,18 SPCS,48904,SPACEBEE-111,PAYLOAD,U,21059AB,2023/1/4 14:04,154656,15.2185839,0.0009924,97.5785,139.9341,119.0667,241.1564,0,999,8448,0.0010845,0.00024681,0,3731596,0 SPACEBEE-111,1 48904U 21059AB  23004.58656429  .00024681  00000-0  10845-2 0  9997,2 48904  97.5785 139.9341 0009924 119.0667 241.1564 15.21858390 84481,2021-059AB,48904,6878.372,94.621,507.063,493.411,0,2023/1/7
GENERATED VIA SPACETRACK.ORG API,18 SPCS,48904,SPACEBEE-111,PAYLOAD,U,21059AB,2023/1/4 14:04,154656,15.2185839,0.0009924,97.5785,139.9341,119.0667,241.1564,0,999,8448,0.0010845,0.00024681,0,3731823,0 SPACEBEE-111,1 48904U 21059AB  23004.58656429  .00024681  00000-0  10845-2 0  9997,2 48904  97.5785 139.9341 0009924 119.0667 241.1564 15.21858390 84481,2021-059AB,48904,6878.372,94.621,507.063,493.411,0,2023/1/8
GENERATED VIA SPACETRACK.ORG API,18 SPCS,48904,SPACEBEE-111,PAYLOAD,U,21059AB,2023/1/5 7:26,351232,15.21888293,0.0009937,97.5789,140.6632,116.3469,243.8788,0,999,8459,0.0008258,0.00018778,0,3732939,0 SPACEBEE-111,1 48904U 21059AB  23005.30981888  .00018778  00000-0  82580-3 0  9994,2 48904  97.5789 140.6632 0009937 116.3469 243.8788 15.21888293 84595,2021-059AB,48904,6878.282,94.619,506.982,493.312,0,2023/1/9
GENERATED VIA SPACETRACK.ORG API,18 SPCS,48904,SPACEBEE-111,PAYLOAD,U,21059AB,2023/1/5 7:26,351232,15.21888293,0.0009937,97.5789,140.6632,116.3469,243.8788,0,999,8459,0.0008258,0.00018778,0,3733234,0 SPACEBEE-111,1 48904U 21059AB  23005.30981888  .00018778  00000-0  82580-3 0  9994,2 48904  97.5789 140.6632 0009937 116.3469 243.8788 15.21888293 84595,2021-059AB,48904,6878.282,94.619,506.982,493.312,0,2023/1/10
GENERATED VIA SPACETRACK.ORG API,18 SPCS,48904,SPACEBEE-111,PAYLOAD,U,21059AB,2023/1/6 8:40,149344,15.21941874,0.0010002,97.5792,141.7232,112.7858,247.4435,0,999,8475,0.0010081,0.00022989,0,3734988,0 SPACEBEE-111,1 48904U 21059AB  23006.36179571  .00022989  00000-0  10081-2 0  9994,2 48904  97.5792 141.7232 0010002 112.7858 247.4435 15.21941874 84756,2021-059AB,48904,6878.121,94.616,506.865,493.106,0,2023/1/11
GENERATED VIA SPACETRACK.ORG API,18 SPCS,48904,SPACEBEE-111,PAYLOAD,U,21059AB,2023/1/6 8:40,149344,15.21941874,0.0010002,97.5792,141.7232,112.7858,247.4435,0,999,8475,0.0010081,0.00022989,0,3735161,0 SPACEBEE-111,1 48904U 21059AB  23006.36179571  .00022989  00000-0  10081-2 0  9994,2 48904  97.5792 141.7232 0010002 112.7858 247.4435 15.21941874 84756,2021-059AB,48904,6878.121,94.616,506.865,493.106,0,2023/1/12
GENERATED VIA SPACETRACK.ORG API,18 SPCS,48904,SPACEBEE-111,PAYLOAD,U,21059AB,2023/1/7 14:39,206304,15.2199673,0.0009971,97.5793,142.9818,108.9525,251.2792,0,999,8494,0.00098045,0.00022391,0,3735281,0 SPACEBEE-111,1 48904U 21059AB  23007.61097461  .00022391  00000-0  98045-3 0  9994,2 48904  97.5793 142.9818 0009971 108.9525 251.2792 15.21996730 84942,2021-059AB,48904,6877.956,94.613,506.679,492.962,0,2023/1/13
GENERATED VIA SPACETRACK.ORG API,18 SPCS,48904,SPACEBEE-111,PAYLOAD,U,21059AB,2023/1/7 14:39,206304,15.2199673,0.0009971,97.5793,142.9818,108.9525,251.2792,0,999,8494,0.00098045,0.00022391,0,3735488,0 SPACEBEE-111,1 48904U 21059AB  23007.61097461  .00022391  00000-0  98045-3 0  9994,2 48904  97.5793 142.9818 0009971 108.9525 251.2792 15.21996730 84942,2021-059AB,48904,6877.956,94.613,506.679,492.962,0,2023/1/14
GENERATED VIA SPACETRACK.ORG API,18 SPCS,48904,SPACEBEE-111,PAYLOAD,U,21059AB,2023/1/8 14:19,756032,15.22037085,0.0009931,97.5797,143.9756,105.8626,254.3705,0,999,8509,0.00094923,0.00021699,0,3736235,0 SPACEBEE-111,1 48904U 21059AB  23008.59713838  .00021699  00000-0  94923-3 0  9996,2 48904  97.5797 143.9756 0009931 105.8626 254.3705 15.22037085 85097,2021-059AB,48904,6877.834,94.61,506.529,492.869,0,2023/1/15
GENERATED VIA SPACETRACK.ORG API,18 SPCS,48904,SPACEBEE-111,PAYLOAD,U,21059AB,2023/1/9 4:31,302016,15.22064413,0.0009951,97.5797,144.572,103.6438,256.5907,0,999,8518,0.00098539,0.00022549,0,3737082,0 SPACEBEE-111,1 48904U 21059AB  23009.18882294  .00022549  00000-0  98539-3 0  9997,2 48904  97.5797 144.5720 0009951 103.6438 256.5907 15.22064413 85187,2021-059AB,48904,6877.752,94.608,506.461,492.773,0,2023/1/16
GENERATED VIA SPACETRACK.ORG API,18 SPCS,48904,SPACEBEE-111,PAYLOAD,U,21059AB,2023/1/9 4:31,302016,15.22064413,0.0009951,97.5797,144.572,103.6438,256.5907,0,999,8518,0.00098539,0.00022549,0,3737263,0 SPACEBEE-111,1 48904U 21059AB  23009.18882294  .00022549  00000-0  98539-3 0  9997,2 48904  97.5797 144.5720 0009951 103.6438 256.5907 15.22064413 85187,2021-059AB,48904,6877.752,94.608,506.461,492.773,0,2023/1/17
GENERATED VIA SPACETRACK.ORG API,18 SPCS,48904,SPACEBEE-111,PAYLOAD,U,21059AB,2023/1/10 7:21,674176,15.22116761,0.0009997,97.5799,145.6985,99.735,260.5015,0,999,8535,0.00098184,0.00022502,0,3738782,0 SPACEBEE-111,1 48904U 21059AB  23010.30641984  .00022502  00000-0  98184-3 0  9997,2 48904  97.5799 145.6985 0009997  99.7350 260.5015 15.22116761 85350,2021-059AB,48904,6877.594,94.605,506.334,492.583,0,2023/1/18
GENERATED VIA SPACETRACK.ORG API,18 SPCS,48904,SPACEBEE-111,PAYLOAD,U,21059AB,2023/1/10 7:21,674176,15.22116761,0.0009997,97.5799,145.6985,99.735,260.5015,0,999,8535,0.00098184,0.00022502,0,3739038,0 SPACEBEE-111,1 48904U 21059AB  23010.30641984  .00022502  00000-0  98184-3 0  9997,2 48904  97.5799 145.6985 0009997  99.7350 260.5015 15.22116761 85350,2021-059AB,48904,6877.594,94.605,506.334,492.583,0,2023/1/19
GENERATED VIA SPACETRACK.ORG API,18 SPCS,48904,SPACEBEE-111,PAYLOAD,U,21059AB,2023/1/11 8:35,869472,15.2217119,0.0010037,97.5798,146.7586,96.3109,263.927,0,999,8551,0.0011168,0.00025657,0,3739822,0 SPACEBEE-111,1 48904U 21059AB  23011.35823923  .00025657  00000-0  11168-2 0  9998,2 48904  97.5798 146.7586 0010037  96.3109 263.9270 15.22171190 85515,2021-059AB,48904,6877.43,94.602,506.198,492.392,0,2023/1/20
GENERATED VIA SPACETRACK.ORG API,18 SPCS,48904,SPACEBEE-111,PAYLOAD,U,21059AB,2023/1/11 14:54,632832,15.2218594,0.0009987,97.5798,147.0234,95.4441,264.7934,0,999,8555,0.001152,0.00026482,0,3740054,0 SPACEBEE-111,1 48904U 21059AB  23011.62118788  .00026482  00000-0  11520-2 0  9993,2 48904  97.5798 147.0234 0009987  95.4441 264.7934 15.22185940 85558,2021-059AB,48904,6877.386,94.601,506.119,492.382,0,2023/1/21
GENERATED VIA SPACETRACK.ORG API,18 SPCS,48904,SPACEBEE-111,PAYLOAD,U,21059AB,2023/1/12 14:34,115584,15.22239407,0.0009952,97.5794,148.0173,92.2422,267.9953,0,999,8570,0.0011221,0.00025831,0,3741361,0 SPACEBEE-111,1 48904U 21059AB  23012.60722356  .00025831  00000-0  11221-2 0  9999,2 48904  97.5794 148.0173 0009952  92.2422 267.9953 15.22239407 85704,2021-059AB,48904,6877.224,94.597,505.934,492.245,0,2023/1/22
GENERATED VIA SPACETRACK.ORG API,18 SPCS,48904,SPACEBEE-111,PAYLOAD,U,21059AB,2023/1/12 22:27,315040,15.22257223,0.0009974,97.5793,148.3486,91.3027,268.9351,0,999,8575,0.0011433,0.00026336,0,3742227,0 SPACEBEE-111,1 48904U 21059AB  23012.93589485  .00026336  00000-0  11433-2 0  9995,2 48904  97.5793 148.3486 0009974  91.3027 268.9351 15.22257223 85752,2021-059AB,48904,6877.171,94.596,505.895,492.177,0,2023/1/23
